NORAD_CAT_ID,OBJECT_NAME,OBJECT_TYPE,EPOCH,MEAN_MOTION,ECCENTRICITY,INCLINATION,RA_OF_ASC_NODE,ARG_OF_PERICENTER,MEAN_ANOMALY,BSTAR,MEAN_MOTION_DOT,MEAN_MOTION_DDOT,TLE_LINE0,TLE_LINE1,TLE_LINE2,SEMIMAJOR_AXIS,PERIOD,APOGEE,PERIGEE,DECAYED
55289.0,STARLINK-5320,PAYLOAD,2023-07-16 17:10:29,14.98332461,0.0003376,69.9989,302.6256,269.2488,90.8284,2.0284e-05,1.49e-06,0.0,0 STARLINK-5320,1 55289U 23010W   23197.71561646  .00000149  00000-0  20284-4 0  9997,2 55289  69.9989 302.6256 0003376 269.2488  90.8284 14.98332461 28117,6950.185,96.107,574.397,569.704,0.0
55289.0,STARLINK-5320,PAYLOAD,2023-07-17 17:12:29,14.98338364,0.0003341,69.9991,300.1006,269.5374,90.5402,8.3267e-05,9.01e-06,0.0,0 STARLINK-5320,1 55289U 23010W   23198.71700938  .00000901  00000-0  83267-4 0  9993,2 55289  69.9991 300.1006 0003341 269.5374  90.5402 14.98338364 28268,6950.167,96.106,574.354,569.71,0.0
55289.0,STARLINK-5320,PAYLOAD,2023-07-18 10:49:58,14.98328881,0.0003382,69.9993,298.2491,269.2458,90.8313,1.967e-05,1.42e-06,0.0,0 STARLINK-5320,1 55289U 23010W   23199.45137537  .00000142  00000-0  19670-4 0  9998,2 55289  69.9993 298.2491 0003382 269.2458  90.8313 14.98328881 28379,6950.196,96.107,574.412,569.711,0.0
55289.0,STARLINK-5320,PAYLOAD,2023-07-19 01:15:10,14.98359611,0.0003199,69.9999,296.7359,258.5274,101.5526,-0.00056971,-6.889e-05,0.0,0 STARLINK-5320,1 55289U 23010W   23200.05220684 -.00006889  00000-0 -56971-3 0  9993,2 55289  69.9999 296.7359 0003199 258.5274 101.5526 14.98359611 28465,6950.101,96.105,574.19,569.743,0.0
55289.0,STARLINK-5320,PAYLOAD,2023-07-19 09:15:52,14.9832089,0.0002999,70.0,295.8942,262.5803,97.5015,-0.00016357,-2.044e-05,0.0,0 STARLINK-5320,1 55289U 23010W   23200.38602514 -.00002044  00000-0 -16357-3 0  9998,2 55289  70.0000 295.8942 0002999 262.5803  97.5015 14.98320890 28519,6950.221,96.108,574.17,570.002,0.0
55289.0,STARLINK-5320,PAYLOAD,2023-07-20 15:42:24,14.98334632,0.0003288,69.9991,292.6952,269.9693,90.1089,2.3148e-05,1.83e-06,0.0,0 STARLINK-5320,1 55289U 23010W   23201.65445305  .00000183  00000-0  23148-4 0  9999,2 55289  69.9991 292.6952 0003288 269.9693  90.1089 14.98334632 28701,6950.179,96.107,574.329,569.758,0.0
55289.0,STARLINK-5320,PAYLOAD,2023-07-21 06:07:37,14.98323448,0.0003322,69.9992,291.1804,270.1536,89.9243,0.00011858,1.322e-05,0.0,0 STARLINK-5320,1 55289U 23010W   23202.25529718  .00001322  00000-0  11858-3 0  9997,2 55289  69.9992 291.1804 0003322 270.1536  89.9243 14.98323448 28791,6950.213,96.107,574.387,569.769,0.0
55289.0,STARLINK-5320,PAYLOAD,2023-07-23 04:35:31,14.98333971,0.0003097,69.9994,286.2991,263.7984,96.2823,-5.1031e-06,-1.54e-06,0.0,0 STARLINK-5320,1 55289U 23010W   23204.19133226 -.00000154  00000-0 -51031-5 0  9990,2 55289  69.9994 286.2991 0003097 263.7984  96.2823 14.98333971 29089,6950.181,96.107,574.198,569.893,0.0
55289.0,STARLINK-5320,PAYLOAD,2023-07-25 11:04:05,14.98327175,0.0004976,69.9962,280.5715,288.4144,71.6474,-8.8685e-05,-1.151e-05,0.0,0 STARLINK-5320,1 55289U 23010W   23206.46117632 -.00001151  00000-0 -88685-4 0  9997,2 55289  69.9962 280.5715 0004976 288.4144  71.6474 14.98327175 29420,6950.202,96.107,575.525,568.608,0.0
55289.0,STARLINK-5320,PAYLOAD,2023-07-26 06:17:41,14.98325052,0.000355,69.9986,278.5545,268.5952,91.4801,7.3573e-05,7.85e-06,0.0,0 STARLINK-5320,1 55289U 23010W   23207.26228873  .00000785  00000-0  73573-4 0  9996,2 55289  69.9986 278.5545 0003550 268.5952  91.4801 14.98325052 29850,6950.208,96.107,574.541,569.606,0.0
55289.0,STARLINK-5320,PAYLOAD,2023-07-26 07:53:49,14.98325742,0.0003598,69.9985,278.386,269.0848,90.9899,7.8621e-05,8.45e-06,0.0,0 STARLINK-5320,1 55289U 23010W   23207.32904835  .00000845  00000-0  78621-4 0  9998,2 55289  69.9985 278.3860 0003598 269.0848  90.9899 14.98325742 29867,6950.206,96.107,574.572,569.57,0.0
55289.0,STARLINK-5320,PAYLOAD,2023-07-26 22:19:01,14.98332036,0.0003675,69.9981,276.8705,271.4963,88.5775,0.00012506,1.4e-05,0.0,0 STARLINK-5320,1 55289U 23010W   23207.92988355  .00001400  00000-0  12506-3 0  9990,2 55289  69.9981 276.8705 0003675 271.4963  88.5775 14.98332036 29641,6950.187,96.107,574.606,569.497,0.0
55289.0,STARLINK-5320,PAYLOAD,2023-07-27 04:43:35,14.98321233,0.0003602,69.9983,276.1975,270.7312,89.3434,2.8037e-06,-6e-07,0.0,0 STARLINK-5320,1 55289U 23010W   23208.19693417 -.00000060  00000-0  28037-5 0  9992,2 55289  69.9983 276.1975 0003602 270.7312  89.3434 14.98321233 29687,6950.22,96.108,574.588,569.582,0.0
55289.0,STARLINK-5320,PAYLOAD,2023-07-27 22:21:03,14.98327869,0.0003592,69.9983,274.3459,270.6123,89.4625,-4.1656e-06,-1.43e-06,0.0,0 STARLINK-5320,1 55289U 23010W   23208.93129200 -.00000143  00000-0 -41656-5 0  9993,2 55289  69.9983 274.3459 0003592 270.6123  89.4625 14.98327869 29797,6950.199,96.107,574.561,569.568,0.0
55289.0,STARLINK-5320,PAYLOAD,2023-07-28 07:57:52,14.98326898,0.0003579,69.9983,273.3359,269.7328,90.3421,-2.768e-05,-4.23e-06,0.0,0 STARLINK-5320,1 55289U 23010W   23209.33185385 -.00000423  00000-0 -27680-4 0  9995,2 55289  69.9983 273.3359 0003579 269.7328  90.3421 14.98326898 30165,6950.202,96.107,574.555,569.58,0.0
55289.0,STARLINK-5320,PAYLOAD,2023-07-28 22:23:04,14.9833297,0.0003522,69.9985,271.8209,270.4267,89.6488,-1.6849e-05,-2.94e-06,0.0,0 STARLINK-5320,1 55289U 23010W   23209.93268960 -.00000294  00000-0 -16849-4 0  9993,2 55289  69.9985 271.8209 0003522 270.4267  89.6488 14.98332970 29949,6950.184,96.107,574.497,569.601,0.0
55289.0,STARLINK-5320,PAYLOAD,2023-07-30 03:13:29,14.98325876,0.0003494,69.9983,268.791,269.3172,90.7586,-6.0175e-06,-1.65e-06,0.0,0 STARLINK-5320,1 55289U 23010W   23211.13437300 -.00000165  00000-0 -60175-5 0  9993,2 55289  69.9983 268.7910 0003494 269.3172  90.7586 14.98325876 30122,6950.206,96.107,574.499,569.642,0.0
55289.0,STARLINK-5320,PAYLOAD,2023-07-30 22:27:06,14.98332588,0.0003493,69.9983,266.771,268.7849,91.291,6.1705e-06,-1.9e-07,0.0,0 STARLINK-5320,1 55289U 23010W   23211.93548846 -.00000019  00000-0  61705-5 0  9996,2 55289  69.9983 266.7710 0003493 268.7849  91.2910 14.98332588 30249,6950.185,96.107,574.478,569.622,0.0
55289.0,STARLINK-5320,PAYLOAD,2023-07-31 22:29:07,14.98332644,0.0003503,69.9981,264.2459,269.9461,90.1297,-2.1735e-05,-3.52e-06,0.0,0 STARLINK-5320,1 55289U 23010W   23212.93688665 -.00000352  00000-0 -21735-4 0  9990,2 55289  69.9981 264.2459 0003503 269.9461  90.1297 14.98332644 30390,6950.185,96.107,574.484,569.615,0.0
55289.0,STARLINK-5320,PAYLOAD,2023-08-02 09:44:04,14.98324145,0.0003567,69.9981,260.5422,269.3969,90.6781,-5.901e-05,-7.97e-06,0.0,0 STARLINK-5320,1 55289U 23010W   23214.40561309 -.00000797  00000-0 -59010-4 0  9999,2 55289  69.9981 260.5422 0003567 269.3969  90.6781 14.98324145 30611,6950.211,96.107,574.555,569.597,0.0
55289.0,STARLINK-5320,PAYLOAD,2023-08-03 09:46:05,14.98326477,0.0003445,69.9986,258.0174,265.7624,94.3142,3.1862e-05,2.87e-06,0.0,0 STARLINK-5320,1 55289U 23010W   23215.40701198  .00000287  00000-0  31862-4 0  9999,2 55289  69.9986 258.0174 0003445 265.7624  94.3142 14.98326477 30763,6950.204,96.107,574.463,569.674,0.0
55289.0,STARLINK-5320,PAYLOAD,2023-08-04 09:48:06,14.98353249,0.0002808,69.9987,255.4912,272.9857,87.0981,-0.0003318,-4.052e-05,0.0,0 STARLINK-5320,1 55289U 23010W   23216.40840482 -.00004052  00000-0 -33180-3 0  9990,2 55289  69.9987 255.4912 0002808 272.9857  87.0981 14.98353249 30919,6950.121,96.106,573.938,570.034,0.0
55289.0,STARLINK-5320,PAYLOAD,2023-08-04 13:00:22,14.98313592,0.0003305,69.9991,255.1554,268.5474,91.5306,0.00039525,4.624e-05,0.0,0 STARLINK-5320,1 55289U 23010W   23216.54193003  .00004624  00000-0  39525-3 0  9997,2 55289  69.9991 255.1554 0003305 268.5474  91.5306 14.98313592 30932,6950.244,96.108,574.406,569.812,0.0
55289.0,STARLINK-5320,PAYLOAD,2023-08-05 03:25:34,14.98334241,0.0003451,69.9992,253.6405,268.5251,91.5512,4.3695e-05,4.28e-06,0.0,0 STARLINK-5320,1 55289U 23010W   23217.14276486  .00000428  00000-0  43695-4 0  9993,2 55289  69.9992 253.6405 0003451 268.5251  91.5512 14.98334241 31020,6950.18,96.107,574.443,569.646,0.0
55289.0,STARLINK-5320,PAYLOAD,2023-08-06 05:03:44,14.98329561,0.0003343,69.9996,250.9476,268.2529,91.8247,-5.7465e-05,-7.79e-06,0.0,0 STARLINK-5320,1 55289U 23010W   23218.21092676 -.00000779  00000-0 -57465-4 0  9990,2 55289  69.9996 250.9476 0003343 268.2529  91.8247 14.98329561 31181,6950.194,96.107,574.383,569.736,0.0
55289.0,STARLINK-5320,PAYLOAD,2023-08-07 09:54:09,14.98331757,0.0003448,69.9991,247.9178,267.8831,92.1933,-7.3202e-05,-9.66e-06,0.0,0 STARLINK-5320,1 55289U 23010W   23219.41260476 -.00000966  00000-0 -73202-4 0  9993,2 55289  69.9991 247.9178 0003448 267.8831  92.1933 14.98331757 31364,6950.187,96.107,574.449,569.656,0.0
55289.0,STARLINK-5320,PAYLOAD,2023-08-08 11:32:17,14.98331285,0.0003606,69.9989,245.2244,269.7808,90.2937,5.8702e-05,6.07e-06,0.0,0 STARLINK-5320,1 55289U 23010W   23220.48076050  .00000607  00000-0  58702-4 0  9993,2 55289  69.9989 245.2244 0003606 269.7808  90.2937 14.98331285 31524,6950.189,96.107,574.56,569.548,0.0
55289.0,STARLINK-5320,PAYLOAD,2023-08-09 00:21:22,14.98326516,0.0003611,69.9989,243.8781,269.7929,90.2816,6.7145e-06,-1.3e-07,0.0,0 STARLINK-5320,1 55289U 23010W   23221.01484499 -.00000013  00000-0  67145-5 0  9997,2 55289  69.9989 243.8781 0003611 269.7929  90.2816 14.98326516 31600,6950.204,96.107,574.578,569.559,0.0
55289.0,STARLINK-5320,PAYLOAD,2023-08-10 00:23:23,14.98329827,0.0003587,69.9989,241.3531,269.4025,90.6723,-1.1386e-05,-2.29e-06,0.0,0 STARLINK-5320,1 55289U 23010W   23222.01624413 -.00000229  00000-0 -11386-4 0  9995,2 55289  69.9989 241.3531 0003587 269.4025  90.6723 14.98329827 31757,6950.193,96.107,574.551,569.565,0.0
55289.0,STARLINK-5320,PAYLOAD,2023-08-11 10:02:12,14.98329515,0.0003588,69.9989,237.8183,269.0142,91.0606,2.7443e-05,2.34e-06,0.0,0 STARLINK-5320,1 55289U 23010W   23223.41820286  .00000234  00000-0  27443-4 0  9991,2 55289  69.9989 237.8183 0003588 269.0142  91.0606 14.98329515 31969,6950.194,96.107,574.553,569.566,0.0
